{
  "links" : {
    "next" : "https://api.nasa.gov/neo/rest/v1/feed?start_date=2009-01-09&end_date=2009-01-09&detailed=true&api_key=t0TVs3DtDT2H8Oy2Zy8m2eVrNsAVKAexjcZXUckd",
    "prev" : "https://api.nasa.gov/neo/rest/v1/feed?start_date=2009-01-07&end_date=2009-01-07&detailed=true&api_key=t0TVs3DtDT2H8Oy2Zy8m2eVrNsAVKAexjcZXUckd",
    "self" : "https://api.nasa.gov/neo/rest/v1/feed?start_date=2009-01-08&end_date=2009-01-08&detailed=true&api_key=t0TVs3DtDT2H8Oy2Zy8m2eVrNsAVKAexjcZXUckd"
  },
  "element_count" : 5,
  "near_earth_objects" : {
    "2009-01-08" : [ {
      "links" : {
        "self" : "https://api.nasa.gov/neo/rest/v1/neo/3738544?api_key=t0TVs3DtDT2H8Oy2Zy8m2eVrNsAVKAexjcZXUckd"
      },
      "neo_reference_id" : "3738544",
      "name" : "(2015 YG)",
      "nasa_jpl_url" : "http://ssd.jpl.nasa.gov/sbdb.cgi?sstr=3738544",
      "absolute_magnitude_h" : 23.2,
      "estimated_diameter" : {
        "kilometers" : {
          "estimated_diameter_min" : 0.0608912622,
          "estimated_diameter_max" : 0.1361570015
        },
        "meters" : {
          "estimated_diameter_min" : 60.8912622106,
          "estimated_diameter_max" : 136.1570015386
        },
        "miles" : {
          "estimated_diameter_min" : 0.0378360645,
          "estimated_diameter_max" : 0.0846040122
        },
        "feet" : {
          "estimated_diameter_min" : 199.7744887109,
          "estimated_diameter_max" : 446.7093369279
        }
      },
      "is_potentially_hazardous_asteroid" : false,
      "close_approach_data" : [ {
        "close_approach_date" : "2009-01-08",
        "epoch_date_close_approach" : 1231401600000,
        "relative_velocity" : {
          "kilometers_per_second" : "18.9117991853",
          "kilometers_per_hour" : "68082.4770669371",
          "miles_per_hour" : "42303.8035975088"
        },
        "miss_distance" : {
          "astronomical" : "0.2180312701",
          "lunar" : "84.814163208",
          "kilometers" : "32617014",
          "miles" : "20267274"
        },
        "orbiting_body" : "Earth"
      } ],
      "orbital_data" : {
        "orbit_id" : "6",
        "orbit_determination_date" : "2017-04-06 08:29:45",
        "orbit_uncertainty" : "7",
        "minimum_orbit_intersection" : ".0945389",
        "jupiter_tisserand_invariant" : "7.606",
        "epoch_osculation" : "2458000.5",
        "eccentricity" : ".4872196875536879",
        "semi_major_axis" : ".7470318295685924",
        "inclination" : "14.61162529977332",
        "ascending_node_longitude" : "267.9638221876668",
        "orbital_period" : "235.8343636565311",
        "perihelion_distance" : ".383063214973523",
        "perihelion_argument" : "355.2488685140135",
        "aphelion_distance" : "1.111000444163662",
        "perihelion_time" : "2457970.166196121118",
        "mean_anomaly" : "46.30440291687798",
        "mean_motion" : "1.526495097738613",
        "equinox" : "J2000"
      }
    }, {
      "links" : {
        "self" : "https://api.nasa.gov/neo/rest/v1/neo/3102731?api_key=t0TVs3DtDT2H8Oy2Zy8m2eVrNsAVKAexjcZXUckd"
      },
      "neo_reference_id" : "3102731",
      "name" : "(2002 AB2)",
      "nasa_jpl_url" : "http://ssd.jpl.nasa.gov/sbdb.cgi?sstr=3102731",
      "absolute_magnitude_h" : 23.3,
      "estimated_diameter" : {
        "kilometers" : {
          "estimated_diameter_min" : 0.058150704,
          "estimated_diameter_max" : 0.130028927
        },
        "meters" : {
          "estimated_diameter_min" : 58.1507039646,
          "estimated_diameter_max" : 130.0289270043
        },
        "miles" : {
          "estimated_diameter_min" : 0.0361331611,
          "estimated_diameter_max" : 0.0807962044
        },
        "feet" : {
          "estimated_diameter_min" : 190.7831555951,
          "estimated_diameter_max" : 426.6041048727
        }
      },
      "is_potentially_hazardous_asteroid" : false,
      "close_approach_data" : [ {
        "close_approach_date" : "2009-01-08",
        "epoch_date_close_approach" : 1231401600000,
        "relative_velocity" : {
          "kilometers_per_second" : "21.2791415928",
          "kilometers_per_hour" : "76604.909734057",
          "miles_per_hour" : "47599.31182892"
        },
        "miss_distance" : {
          "astronomical" : "0.309193249",
          "lunar" : "120.2761764526",
          "kilometers" : "46254652",
          "miles" : "28741308"
        },
        "orbiting_body" : "Earth"
      } ],
      "orbital_data" : {
        "orbit_id" : "11",
        "orbit_determination_date" : "2017-04-06 09:15:37",
        "orbit_uncertainty" : "7",
        "minimum_orbit_intersection" : ".0498147",
        "jupiter_tisserand_invariant" : "6.911",
        "epoch_osculation" : "2458000.5",
        "eccentricity" : ".386102487570489",
        "semi_major_axis" : ".840796241489249",
        "inclination" : "13.19720595080159",
        "ascending_node_longitude" : "103.0883776614955",
        "orbital_period" : "281.6012442163776",
        "perihelion_distance" : ".5161627211103323",
        "perihelion_argument" : "149.5427970863489",
        "aphelion_distance" : "1.165429761868166",
        "perihelion_time" : "2458003.427406582381",
        "mean_anomaly" : "356.2575933476789",
        "mean_motion" : "1.278403442434303",
        "equinox" : "J2000"
      }
    } ]
  }
}